[{"OBJECT_NAME":"STARLINK-1707","OBJECT_ID":"2020-062AL","EPOCH":"2026-03-10T00:00:02.999808","MEAN_MOTION":15.64738018,"ECCENTRICITY":0.00048268,"INCLINATION":53.0247,"RA_OF_ASC_NODE":272.9503,"ARG_OF_PERICENTER":149.3622,"MEAN_ANOMALY":71.1138,"EPHEMERIS_TYPE":0,"CLASSIFICATION_TYPE":"U","NORAD_CAT_ID":46359,"ELEMENT_SET_NO":999,"REV_AT_EPOCH":594,"BSTAR":0.0008682066,"MEAN_MOTION_DOT":0.00086366,"MEAN_MOTION_DDOT":0},{"OBJECT_NAME":"STARLINK-2363","OBJECT_ID":"2021-021AV","EPOCH":"2026-03-10T00:00:02.999808","MEAN_MOTION":15.64981779,"ECCENTRICITY":0.00011599,"INCLINATION":53.1594,"RA_OF_ASC_NODE":250.7661,"ARG_OF_PERICENTER":51.6723,"MEAN_ANOMALY":183.7852,"EPHEMERIS_TYPE":0,"CLASSIFICATION_TYPE":"U","NORAD_CAT_ID":47903,"ELEMENT_SET_NO":999,"REV_AT_EPOCH":582,"BSTAR":0.00044293637,"MEAN_MOTION_DOT":0.00043966,"MEAN_MOTION_DDOT":0}]
